[{"OBJECT_NAME":"STARLINK-32744","OBJECT_ID":"2025-003Y","EPOCH":"2026-03-09T00:10:01.664544","MEAN_MOTION":15.27597765,"ECCENTRICITY":0.00013706,"INCLINATION":43.0018,"RA_OF_ASC_NODE":293.1311,"ARG_OF_PERICENTER":268.9979,"MEAN_ANOMALY":91.0716,"EPHEMERIS_TYPE":0,"CLASSIFICATION_TYPE":"U","NORAD_CAT_ID":62509,"ELEMENT_SET_NO":999,"REV_AT_EPOCH":6644,"BSTAR":0.0012858497,"MEAN_MOTION_DOT":0.0003531,"MEAN_MOTION_DDOT":0},{"OBJECT_NAME":"FENGYUN 1C DEB","OBJECT_ID":"1999-025ETT","EPOCH":"2026-03-07T08:30:03.670560","MEAN_MOTION":15.28888299,"ECCENTRICITY":0.00158464,"INCLINATION":99.1103,"RA_OF_ASC_NODE":112.0072,"ARG_OF_PERICENTER":201.0032,"MEAN_ANOMALY":159.0553,"EPHEMERIS_TYPE":0,"CLASSIFICATION_TYPE":"U","NORAD_CAT_ID":38726,"ELEMENT_SET_NO":999,"REV_AT_EPOCH":71135,"BSTAR":0.013792546,"MEAN_MOTION_DOT":0.00409659,"MEAN_MOTION_DDOT":0}]
